{
  "type": "FeatureCollection",
  "features": [
    {
      "type": "Feature",
      "properties": {
        "norad_id": 32356,
        "name": "FENGYUN 1C DEB",
        "group": "fengyun-1c-debris",
        "lat": 67.73535272174864,
        "lon": 82.18376828690617,
        "alt_km": 931.3444843286898,
        "timestamp": "2025-12-27T15:27:11.477221+00:00",
        "meta_object_name": "FENGYUN 1C DEB",
        "meta_object_id": "1999-025CYZ",
        "meta_epoch": "2025-12-26T11:34:03.942048",
        "meta_mean_motion": 14.03483044,
        "meta_eccentricity": 0.0126308,
        "meta_inclination": 102.4963,
        "meta_ra_of_asc_node": 227.7957,
        "meta_arg_of_pericenter": 342.845,
        "meta_mean_anomaly": 16.8453,
        "meta_ephemeris_type": 0,
        "meta_classification_type": "U",
        "meta_norad_cat_id": 32356,
        "meta_element_set_no": 999,
        "meta_rev_at_epoch": 68580,
        "meta_bstar": 0.0024544,
        "meta_mean_motion_dot": 4.055e-05,
        "meta_mean_motion_ddot": 0,
        "tle_line1": "1 32356U 99025CYZ 25360.48199007  .00004055  00000+0  24544-2 0  9992",
        "tle_line2": "2 32356 102.4963 227.7957 0126308 342.8450  16.8453 14.03483044685806"
      },
      "geometry": {
        "type": "Point",
        "coordinates": [
          82.18376828690617,
          67.73535272174864
        ]
      }
    },
    {
      "type": "Feature",
      "properties": {
        "norad_id": 32357,
        "name": "FENGYUN 1C DEB",
        "group": "fengyun-1c-debris",
        "lat": -61.945600633780295,
        "lon": -157.17613140498372,
        "alt_km": 1024.8313283737198,
        "timestamp": "2025-12-27T15:27:11.477231+00:00",
        "meta_object_name": "FENGYUN 1C DEB",
        "meta_object_id": "1999-025CZA",
        "meta_epoch": "2025-12-26T08:35:06.931968",
        "meta_mean_motion": 13.6882052,
        "meta_eccentricity": 0.0490398,
        "meta_inclination": 98.8545,
        "meta_ra_of_asc_node": 38.6444,
        "meta_arg_of_pericenter": 151.6055,
        "meta_mean_anomaly": 231.4761,
        "meta_ephemeris_type": 0,
        "meta_classification_type": "U",
        "meta_norad_cat_id": 32357,
        "meta_element_set_no": 999,
        "meta_rev_at_epoch": 66974,
        "meta_bstar": 0.0020975,
        "meta_mean_motion_dot": 4.182e-05,
        "meta_mean_motion_ddot": 0,
        "tle_line1": "1 32357U 99025CZA 25360.35771912  .00004182  00000+0  20975-2 0  9995",
        "tle_line2": "2 32357  98.8545  38.6444 0490398 151.6055 231.4761 13.68820520669747"
      },
      "geometry": {
        "type": "Point",
        "coordinates": [
          -157.17613140498372,
          -61.945600633780295
        ]
      }
    },
    {
      "type": "Feature",
      "properties": {
        "norad_id": 32360,
        "name": "FENGYUN 1C DEB",
        "group": "fengyun-1c-debris",
        "lat": -69.82686082653866,
        "lon": -160.00720806103945,
        "alt_km": 749.1490037083577,
        "timestamp": "2025-12-27T15:27:11.477242+00:00",
        "meta_object_name": "FENGYUN 1C DEB",
        "meta_object_id": "1999-025CZD",
        "meta_epoch": "2025-12-24T07:04:44.070528",
        "meta_mean_motion": 13.98404862,
        "meta_eccentricity": 0.02334639,
        "meta_inclination": 98.1032,
        "meta_ra_of_asc_node": 174.2135,
        "meta_arg_of_pericenter": 275.3665,
        "meta_mean_anomaly": 82.0908,
        "meta_ephemeris_type": 0,
        "meta_classification_type": "U",
        "meta_norad_cat_id": 32360,
        "meta_element_set_no": 999,
        "meta_rev_at_epoch": 64978,
        "meta_bstar": 0.0029400127,
        "meta_mean_motion_dot": 5.27e-05,
        "meta_mean_motion_ddot": 0,
        "tle_line1": "1 32360U 99025CZD 25358.29495452  .00005270  00000+0  29400-2 0  9992",
        "tle_line2": "2 32360  98.1032 174.2135 0233463 275.3665  82.0908 13.98404862649783"
      },
      "geometry": {
        "type": "Point",
        "coordinates": [
          -160.00720806103945,
          -69.82686082653866
        ]
      }
    },
    {
      "type": "Feature",
      "properties": {
        "norad_id": 32361,
        "name": "FENGYUN 1C DEB",
        "group": "fengyun-1c-debris",
        "lat": -63.23536336836879,
        "lon": -136.63985177009792,
        "alt_km": 741.8555103654153,
        "timestamp": "2025-12-27T15:27:11.477254+00:00",
        "meta_object_name": "FENGYUN 1C DEB",
        "meta_object_id": "1999-025CZE",
        "meta_epoch": "2025-12-26T15:09:41.700960",
        "meta_mean_motion": 14.51241927,
        "meta_eccentricity": 0.0045316,
        "meta_inclination": 98.8582,
        "meta_ra_of_asc_node": 60.3058,
        "meta_arg_of_pericenter": 1.9938,
        "meta_mean_anomaly": 358.1427,
        "meta_ephemeris_type": 0,
        "meta_classification_type": "U",
        "meta_norad_cat_id": 32361,
        "meta_element_set_no": 999,
        "meta_rev_at_epoch": 96546,
        "meta_bstar": 0.0019516,
        "meta_mean_motion_dot": 7.818e-05,
        "meta_mean_motion_ddot": 0,
        "tle_line1": "1 32361U 99025CZE 25360.63173265  .00007818  00000+0  19516-2 0  9996",
        "tle_line2": "2 32361  98.8582  60.3058 0045316   1.9938 358.1427 14.51241927965464"
      },
      "geometry": {
        "type": "Point",
        "coordinates": [
          -136.63985177009792,
          -63.23536336836879
        ]
      }
    },
    {
      "type": "Feature",
      "properties": {
        "norad_id": 32362,
        "name": "FENGYUN 1C DEB",
        "group": "fengyun-1c-debris",
        "lat": -21.393826823006027,
        "lon": -23.044042899399013,
        "alt_km": 1019.2804408405464,
        "timestamp": "2025-12-27T15:27:11.477265+00:00",
        "meta_object_name": "FENGYUN 1C DEB",
        "meta_object_id": "1999-025CZF",
        "meta_epoch": "2025-12-27T05:00:26.761248",
        "meta_mean_motion": 13.65258804,
        "meta_eccentricity": 0.02725643,
        "meta_inclination": 99.8456,
        "meta_ra_of_asc_node": 332.613,
        "meta_arg_of_pericenter": 248.6302,
        "meta_mean_anomaly": 108.5556,
        "meta_ephemeris_type": 0,
        "meta_classification_type": "U",
        "meta_norad_cat_id": 32362,
        "meta_element_set_no": 999,
        "meta_rev_at_epoch": 91327,
        "meta_bstar": 0.0022650806,
        "meta_mean_motion_dot": 2.324e-05,
        "meta_mean_motion_ddot": 0,
        "tle_line1": "1 32362U 99025CZF 25361.20864307  .00002324  00000+0  22651-2 0  9996",
        "tle_line2": "2 32362  99.8456 332.6130 0272564 248.6302 108.5556 13.65258804913272"
      },
      "geometry": {
        "type": "Point",
        "coordinates": [
          -23.044042899399013,
          -21.393826823006027
        ]
      }
    },
    {
      "type": "Feature",
      "properties": {
        "norad_id": 32363,
        "name": "FENGYUN 1C DEB",
        "group": "fengyun-1c-debris",
        "lat": -20.39382748066069,
        "lon": 138.78285249874767,
        "alt_km": 434.7365820618106,
        "timestamp": "2025-12-27T15:27:11.477275+00:00",
        "meta_object_name": "FENGYUN 1C DEB",
        "meta_object_id": "1999-025CZG",
        "meta_epoch": "2025-12-25T20:46:31.994976",
        "meta_mean_motion": 15.50236728,
        "meta_eccentricity": 0.00636739,
        "meta_inclination": 98.3333,
        "meta_ra_of_asc_node": 319.8511,
        "meta_arg_of_pericenter": 96.7545,
        "meta_mean_anomaly": 264.0955,
        "meta_ephemeris_type": 0,
        "meta_classification_type": "U",
        "meta_norad_cat_id": 32363,
        "meta_element_set_no": 999,
        "meta_rev_at_epoch": 97011,
        "meta_bstar": 0.001790558,
        "meta_mean_motion_dot": 0.00111181,
        "meta_mean_motion_ddot": 0,
        "tle_line1": "1 32363U 99025CZG 25359.86564809  .00111181  00000+0  17906-2 0  9999",
        "tle_line2": "2 32363  98.3333 319.8511 0063673  96.7545 264.0955 15.50236728970115"
      },
      "geometry": {
        "type": "Point",
        "coordinates": [
          138.78285249874767,
          -20.39382748066069
        ]
      }
    },
    {
      "type": "Feature",
      "properties": {
        "norad_id": 32364,
        "name": "FENGYUN 1C DEB",
        "group": "fengyun-1c-debris",
        "lat": 53.075431116540315,
        "lon": -171.6565469922743,
        "alt_km": 832.5767247623098,
        "timestamp": "2025-12-27T15:27:11.477285+00:00",
        "meta_object_name": "FENGYUN 1C DEB",
        "meta_object_id": "1999-025CZH",
        "meta_epoch": "2025-11-29T08:05:37.624992",
        "meta_mean_motion": 14.14317962,
        "meta_eccentricity": 0.01349396,
        "meta_inclination": 98.2918,
        "meta_ra_of_asc_node": 173.2369,
        "meta_arg_of_pericenter": 222.8285,
        "meta_mean_anomaly": 136.2316,
        "meta_ephemeris_type": 0,
        "meta_classification_type": "U",
        "meta_norad_cat_id": 32364,
        "meta_element_set_no": 999,
        "meta_rev_at_epoch": 63519,
        "meta_bstar": 0.0022712328,
        "meta_mean_motion_dot": 4.699e-05,
        "meta_mean_motion_ddot": 0,
        "tle_line1": "1 32364U 99025CZH 25333.33724103  .00004699  00000+0  22712-2 0  9995",
        "tle_line2": "2 32364  98.2918 173.2369 0134939 222.8285 136.2316 14.14317962635190"
      },
      "geometry": {
        "type": "Point",
        "coordinates": [
          -171.6565469922743,
          53.075431116540315
        ]
      }
    }
  ]
}